start=new Date('2022-11-18T00:00:00.000Z').valueOf();
sats=[{"REV_AT_EPOCH":"9450","TLE_LINE2":"2 47815  53.0569 272.0052 0002213  33.9412 326.1719 15.06402584 94505","BSTAR":"0.00008879800000","MEAN_MOTION":"15.06402584","NORAD_CAT_ID":"47815","PERIOD":"95.592","ARG_OF_PERICENTER":"33.9412","OBJECT_ID":"2021-018AE","SITE":"AFETR","OBJECT_NAME":"STARLINK-2396","PERIAPSIS":"545.673","RCS_SIZE":"LARGE","COUNTRY_CODE":"US","SEMIMAJOR_AXIS":"6925.341","MEAN_MOTION_DOT":"0.00001041","DECAY_DATE":null,"LAUNCH_DATE":"2021-03-11","TIME_SYSTEM":"UTC","CENTER_NAME":"EARTH","INCLINATION":"53.0569","MEAN_MOTION_DDOT":"0.0000000000000","MEAN_ELEMENT_THEORY":"SGP4","RA_OF_ASC_NODE":"272.0052","ECCENTRICITY":"0.00022130","MEAN_ANOMALY":"326.1719","EPHEMERIS_TYPE":"0","ELEMENT_SET_NO":"999","TLE_LINE1":"1 47815U 21018AE  22321.14258067  .00001041  00000-0  88798-4 0  9990","CLASSIFICATION_TYPE":"U","OBJECT_TYPE":"PAYLOAD","APOAPSIS":"548.738","GP_ID":"218064754","REF_FRAME":"TEME","EPOCH":"2022-11-17T03:25:18.969888","FILE":"3661693"},{"SITE":"AFETR","OBJECT_NAME":"STARLINK-2399","ARG_OF_PERICENTER":"58.0127","OBJECT_ID":"2021-018AF","PERIOD":"95.592","NORAD_CAT_ID":"47816","MEAN_MOTION":"15.06394545","BSTAR":"0.00006571400000","REV_AT_EPOCH":"9445","TLE_LINE2":"2 47816  53.0554 276.3640 0001845  58.0127 302.1041 15.06394545 94454","FILE":"3661693","EPOCH":"2022-11-17T06:49:00.617952","REF_FRAME":"TEME","OBJECT_TYPE":"PAYLOAD","APOAPSIS":"548.508","GP_ID":"218064020","EPHEMERIS_TYPE":"0","TLE_LINE1":"1 47816U 21018AF  22321.28403493  .00000697  00000-0  65714-4 0  9990","ELEMENT_SET_NO":"999","CLASSIFICATION_TYPE":"U","MEAN_ANOMALY":"302.1041","ECCENTRICITY":"0.00018450","RA_OF_ASC_NODE":"276.3640","MEAN_ELEMENT_THEORY":"SGP4","INCLINATION":"53.0554","MEAN_MOTION_DDOT":"0.0000000000000","LAUNCH_DATE":"2021-03-11","DECAY_DATE":null,"CENTER_NAME":"EARTH","TIME_SYSTEM":"UTC","COUNTRY_CODE":"US","SEMIMAJOR_AXIS":"6925.365","MEAN_MOTION_DOT":"0.00000697","RCS_SIZE":"LARGE","PERIAPSIS":"545.953"},{"EPOCH":"2022-11-17T08:51:05.982336","FILE":"3661693","GP_ID":"218064270","APOAPSIS":"548.717","OBJECT_TYPE":"PAYLOAD","REF_FRAME":"TEME","MEAN_ANOMALY":"314.9377","ECCENTRICITY":"0.00021070","TLE_LINE1":"1 47817U 21018AG  22321.36881924 -.00000938  00000-0 -44072-4 0  9993","CLASSIFICATION_TYPE":"U","ELEMENT_SET_NO":"999","EPHEMERIS_TYPE":"0","MEAN_ELEMENT_THEORY":"SGP4","RA_OF_ASC_NODE":"275.9909","MEAN_MOTION_DDOT":"0.0000000000000","INCLINATION":"53.0549","MEAN_MOTION_DOT":"-0.00000938","COUNTRY_CODE":"US","SEMIMAJOR_AXIS":"6925.393","DECAY_DATE":null,"LAUNCH_DATE":"2021-03-11","TIME_SYSTEM":"UTC","CENTER_NAME":"EARTH","PERIAPSIS":"545.799","RCS_SIZE":"LARGE","OBJECT_ID":"2021-018AG","ARG_OF_PERICENTER":"45.1783","OBJECT_NAME":"STARLINK-2400","SITE":"AFETR","PERIOD":"95.593","MEAN_MOTION":"15.06385585","NORAD_CAT_ID":"47817","BSTAR":"-0.00004407200000","REV_AT_EPOCH":"9446","TLE_LINE2":"2 47817  53.0549 275.9909 0002107  45.1783 314.9377 15.06385585 94467"},{"PERIAPSIS":"545.851","RCS_SIZE":"LARGE","MEAN_MOTION_DOT":"-0.00002116","SEMIMAJOR_AXIS":"6925.325","COUNTRY_CODE":"US","LAUNCH_DATE":"2021-03-11","DECAY_DATE":null,"CENTER_NAME":"EARTH","TIME_SYSTEM":"UTC","MEAN_MOTION_DDOT":"0.0000000000000","INCLINATION":"53.0562","MEAN_ELEMENT_THEORY":"SGP4","RA_OF_ASC_NODE":"281.1513","MEAN_ANOMALY":"299.2673","ECCENTRICITY":"0.00019330","ELEMENT_SET_NO":"999","TLE_LINE1":"1 47818U 21018AH  22321.32870428 -.00002116  00000-0 -12316-3 0  9992","CLASSIFICATION_TYPE":"U","EPHEMERIS_TYPE":"0","GP_ID":"218065022","APOAPSIS":"548.529","OBJECT_TYPE":"PAYLOAD","REF_FRAME":"TEME","EPOCH":"2022-11-17T07:53:20.049792","FILE":"3661693","REV_AT_EPOCH":"9439","TLE_LINE2":"2 47818  53.0562 281.1513 0001933  60.8509 299.2673 15.06407636 94397","BSTAR":"-0.00012316000000","MEAN_MOTION":"15.06407636","NORAD_CAT_ID":"47818","PERIOD":"95.592","OBJECT_ID":"2021-018AH","ARG_OF_PERICENTER":"60.8509","OBJECT_NAME":"STARLINK-2401","SITE":"AFETR"},{"EPHEMERIS_TYPE":"0","CLASSIFICATION_TYPE":"U","TLE_LINE1":"1 47819U 21018AJ  22321.37155361  .00002293  00000-0  17284-3 0  9993","ELEMENT_SET_NO":"999","ECCENTRICITY":"0.00022970","MEAN_ANOMALY":"314.1610","REF_FRAME":"TEME","OBJECT_TYPE":"PAYLOAD","GP_ID":"218070701","APOAPSIS":"548.809","FILE":"3661806","EPOCH":"2022-11-17T08:55:02.231904","RCS_SIZE":"LARGE","PERIAPSIS":"545.627","DECAY_DATE":null,"TIME_SYSTEM":"UTC","LAUNCH_DATE":"2021-03-11","CENTER_NAME":"EARTH","SEMIMAJOR_AXIS":"6925.353","COUNTRY_CODE":"US","MEAN_MOTION_DOT":"0.00002293","INCLINATION":"53.0547","MEAN_MOTION_DDOT":"0.0000000000000","RA_OF_ASC_NODE":"275.9619","MEAN_ELEMENT_THEORY":"SGP4","BSTAR":"0.00017284000000","NORAD_CAT_ID":"47819","MEAN_MOTION":"15.06398626","PERIOD":"95.592","SITE":"AFETR","OBJECT_NAME":"STARLINK-2402","ARG_OF_PERICENTER":"45.9568","OBJECT_ID":"2021-018AJ","TLE_LINE2":"2 47819  53.0547 275.9619 0002297  45.9568 314.1610 15.06398626 94141","REV_AT_EPOCH":"9414"},{"MEAN_MOTION":"15.06393126","NORAD_CAT_ID":"47820","BSTAR":"0.00005008300000","ARG_OF_PERICENTER":"48.3989","OBJECT_ID":"2021-018AK","SITE":"AFETR","OBJECT_NAME":"STARLINK-2403","PERIOD":"95.593","REV_AT_EPOCH":"9442","TLE_LINE2":"2 47820  53.0540 284.8711 0001708  48.3989 311.7146 15.06393126 94426","MEAN_ANOMALY":"311.7146","ECCENTRICITY":"0.00017080","EPHEMERIS_TYPE":"0","ELEMENT_SET_NO":"999","TLE_LINE1":"1 47820U 21018AK  22321.61853730  .00000464  00000-0  50083-4 0  9990","CLASSIFICATION_TYPE":"U","EPOCH":"2022-11-17T14:50:41.622720","FILE":"3661914","OBJECT_TYPE":"PAYLOAD","GP_ID":"218095197","APOAPSIS":"548.417","REF_FRAME":"TEME","SEMIMAJOR_AXIS":"6925.370","COUNTRY_CODE":"US","MEAN_MOTION_DOT":"0.00000464","LAUNCH_DATE":"2021-03-11","DECAY_DATE":null,"TIME_SYSTEM":"UTC","CENTER_NAME":"EARTH","PERIAPSIS":"546.052","RCS_SIZE":"LARGE","MEAN_ELEMENT_THEORY":"SGP4","RA_OF_ASC_NODE":"284.8711","INCLINATION":"53.0540","MEAN_MOTION_DDOT":"0.0000000000000"},{"REV_AT_EPOCH":"9446","TLE_LINE2":"2 47821  53.0555 276.1653 0001284  65.5211 294.5912 15.06401049 94467","PERIOD":"95.592","OBJECT_ID":"2021-018AL","ARG_OF_PERICENTER":"65.5211","OBJECT_NAME":"STARLINK-2406","SITE":"AFETR","BSTAR":"0.00003068400000","MEAN_MOTION":"15.06401049","NORAD_CAT_ID":"47821","MEAN_MOTION_DDOT":"0.0000000000000","INCLINATION":"53.0555","MEAN_ELEMENT_THEORY":"SGP4","RA_OF_ASC_NODE":"276.1653","PERIAPSIS":"546.321","RCS_SIZE":"LARGE","MEAN_MOTION_DOT":"0.00000176","COUNTRY_CODE":"US","SEMIMAJOR_AXIS":"6925.345","DECAY_DATE":null,"LAUNCH_DATE":"2021-03-11","CENTER_NAME":"EARTH","TIME_SYSTEM":"UTC","GP_ID":"218063771","APOAPSIS":"548.100","OBJECT_TYPE":"PAYLOAD","REF_FRAME":"TEME","EPOCH":"2022-11-17T07:58:00.515424","FILE":"3661693","MEAN_ANOMALY":"294.5912","ECCENTRICITY":"0.00012840","ELEMENT_SET_NO":"999","TLE_LINE1":"1 47821U 21018AL  22321.33195041  .00000176  00000-0  30684-4 0  9999","CLASSIFICATION_TYPE":"U","EPHEMERIS_TYPE":"0"},{"ARG_OF_PERICENTER":"56.8789","OBJECT_ID":"2021-018AM","SITE":"AFETR","OBJECT_NAME":"STARLINK-2407","PERIOD":"95.592","MEAN_MOTION":"15.06406769","NORAD_CAT_ID":"47822","BSTAR":"0.00020347000000","REV_AT_EPOCH":"9399","TLE_LINE2":"2 47822  53.0549 286.0982 0001700  56.8789 303.2363 15.06406769 93991","EPOCH":"2022-11-17T08:11:14.265312","FILE":"3661754","OBJECT_TYPE":"PAYLOAD","APOAPSIS":"548.370","GP_ID":"218069402","REF_FRAME":"TEME","MEAN_ANOMALY":"303.2363","ECCENTRICITY":"0.00017000","EPHEMERIS_TYPE":"0","TLE_LINE1":"1 47822U 21018AM  22321.34113733  .00002751  00000-0  20347-3 0  9994","ELEMENT_SET_NO":"999","CLASSIFICATION_TYPE":"U","MEAN_ELEMENT_THEORY":"SGP4","RA_OF_ASC_NODE":"286.0982","INCLINATION":"53.0549","MEAN_MOTION_DDOT":"0.0000000000000","SEMIMAJOR_AXIS":"6925.328","COUNTRY_CODE":"US","MEAN_MOTION_DOT":"0.00002751","DECAY_DATE":null,"LAUNCH_DATE":"2021-03-11","CENTER_NAME":"EARTH","TIME_SYSTEM":"UTC","PERIAPSIS":"546.016","RCS_SIZE":"LARGE"},{"REF_FRAME":"TEME","OBJECT_TYPE":"PAYLOAD","APOAPSIS":"548.650","GP_ID":"218094947","FILE":"3661914","EPOCH":"2022-11-17T19:42:34.774848","EPHEMERIS_TYPE":"0","ELEMENT_SET_NO":"999","TLE_LINE1":"1 47823U 21018AN  22321.82123582  .00001391  00000-0  11229-3 0  9999","CLASSIFICATION_TYPE":"U","MEAN_ANOMALY":"310.0775","ECCENTRICITY":"0.00020700","INCLINATION":"53.0559","MEAN_MOTION_DDOT":"0.0000000000000","RA_OF_ASC_NODE":"273.9469","MEAN_ELEMENT_THEORY":"SGP4","RCS_SIZE":"LARGE","PERIAPSIS":"545.783","DECAY_DATE":null,"LAUNCH_DATE":"2021-03-11","CENTER_NAME":"EARTH","TIME_SYSTEM":"UTC","SEMIMAJOR_AXIS":"6925.352","COUNTRY_CODE":"US","MEAN_MOTION_DOT":"0.00001391","PERIOD":"95.592","SITE":"AFETR","OBJECT_NAME":"STARLINK-2408","ARG_OF_PERICENTER":"50.0396","OBJECT_ID":"2021-018AN","BSTAR":"0.00011229000000","NORAD_CAT_ID":"47823","MEAN_MOTION":"15.06399031","TLE_LINE2":"2 47823  53.0559 273.9469 0002070  50.0396 310.0775 15.06399031 94547","REV_AT_EPOCH":"9454"},{"PERIAPSIS":"546.059","RCS_SIZE":"LARGE","COUNTRY_CODE":"US","SEMIMAJOR_AXIS":"6925.363","MEAN_MOTION_DOT":"0.00001246","DECAY_DATE":null,"LAUNCH_DATE":"2021-03-11","CENTER_NAME":"EARTH","TIME_SYSTEM":"UTC","INCLINATION":"53.0546","MEAN_MOTION_DDOT":"0.0000000000000","MEAN_ELEMENT_THEORY":"SGP4","RA_OF_ASC_NODE":"276.0939","MEAN_ANOMALY":"304.3985","ECCENTRICITY":"0.00016880","EPHEMERIS_TYPE":"0","TLE_LINE1":"1 47824U 21018AP  22321.34669289  .00001246  00000-0  10256-3 0  9994","ELEMENT_SET_NO":"999","CLASSIFICATION_TYPE":"U","OBJECT_TYPE":"PAYLOAD","GP_ID":"218070724","APOAPSIS":"548.397","REF_FRAME":"TEME","EPOCH":"2022-11-17T08:19:14.265696","FILE":"3661808","TLE_LINE2":"2 47824  53.0546 276.0939 0001688  55.7163 304.3985 15.06395171 94133","REV_AT_EPOCH":"9413","BSTAR":"0.00010256000000","MEAN_MOTION":"15.06395171","NORAD_CAT_ID":"47824","PERIOD":"95.592","ARG_OF_PERICENTER":"55.7163","OBJECT_ID":"2021-018AP","SITE":"AFETR","OBJECT_NAME":"STARLINK-2409"}];
